UMKA 1 (RS40S)          
1 57172U 23091G   24291.56797428  .00011651  00000+0  71359-3 0  9994
2 57172  97.5965 342.4761 0017190  66.4061 293.8972 15.10223091 71948
2023-091H               
1 57173U 23091H   24291.60075963  .00015276  00000+0  89194-3 0  9996
2 57173  97.5967 342.7375 0015580  74.8738 285.4214 15.11914452 71967
2023-091J               
1 57174U 23091J   24291.60898500  .00008524  00000+0  56337-3 0  9998
2 57174  97.5987 341.5395 0016819  77.4532 282.8576 15.07519933 71889
CUBEBEL 2 (EU11S)       
1 57175U 23091K   24291.56565760  .00016060  00000+0  94009-3 0  9995
2 57175  97.5967 342.6208 0015505  77.1505 283.1457 15.11811507 71958
SITRO-AIS 5 (KATYS)     
1 57176U 23091L   24291.48535709  .00015717  00000+0  91090-3 0  9992
2 57176  97.5977 342.7932 0017790  66.0074 294.3016 15.12141981 71959
ZORKIY-2M 1             
1 57177U 23091M   24291.54944276  .00011539  00000+0  70445-3 0  9992
2 57177  97.5990 342.6056 0017964  62.4972 297.8081 15.10331501 71947
CUBESX-HSE 3 (RS42S)    
1 57178U 23091N   24291.57427259  .00016488  00000+0  94016-3 0  9991
2 57178  97.5999 343.3067 0017091  59.9384 300.3539 15.12728379 71983
2023-091P               
1 57179U 23091P   24291.54097810  .00009030  00000+0  57809-3 0  9999
2 57179  97.6016 342.1729 0019027  62.5007 297.8153 15.08646116 71907
MONITOR-3 (RS58S)       
1 57180U 23091Q   24291.54340116  .00014809  00000+0  86326-3 0  9997
2 57180  97.5998 343.0012 0017748  61.1040 299.1968 15.11948919 71967
2023-091R               
1 57181U 23091R   24291.50652516  .00008553  00000+0  55899-3 0  9994
2 57181  97.5969 341.6661 0018707  69.3256 290.9975 15.07906549 71881
MONITOR-4 (RS57S)       
1 57182U 23091S   24291.60985022  .00014701  00000+0  85680-3 0  9990
2 57182  97.5992 343.0331 0017773  61.3770 298.9245 15.11957802 71974
2023-091T               
1 57183U 23091T   24291.48258554  .00010120  00000+0  62167-3 0  9996
2 57183  97.6005 342.9455 0014776  55.8760 304.3869 15.10184020 71958
MONITOR-2 (RS39S)       
1 57184U 23091U   24291.53555845  .00010158  00000+0  62780-3 0  9998
2 57184  97.6000 342.8596 0014940  57.6622 302.6051 15.09959273 71951
2023-091V               
1 57185U 23091V   24291.52993157  .00018210  00000+0  97800-3 0  9998
2 57185  97.5990 344.2331 0012606  58.8125 301.4341 15.14903721 72043
CSTP 1.2 (STC 1.2)      
1 57186U 23091W   24291.49184734  .00019084  00000+0  10623-2 0  9995
2 57186  97.5990 343.6048 0017605  49.6806 310.5960 15.13551251 72000
SVYATOBOR 1 (RS60S)     
1 57187U 23091X   24291.53522685  .00013475  00000+0  77658-3 0  9992
2 57187  97.6000 343.6345 0013945  54.1111 306.1412 15.12435296 72009
HORS 1                  
1 57188U 23091Y   24291.53196141  .00013289  00000+0  76637-3 0  9996
2 57188  97.5979 343.5240 0013358  54.8602 305.3878 15.12421694 72001
VIZARD-METEO (RS38S)    
1 57189U 23091Z   24291.48346671  .00017764  00000+0  96122-3 0  9999
2 57189  97.5991 344.2700 0012587  51.4102 308.8255 15.14642890 72042
NANOZOND 1 (RS49S)      
1 57190U 23091AA  24291.54632111  .00028064  00000+0  13291-2 0  9995
2 57190  97.5958 345.4067 0010455  54.9860 305.2354 15.19247549 72135
POLYTECH-UNIVERSE 3 (R*)
1 57191U 23091AB  24291.54258937  .00010537  00000+0  64929-3 0  9997
2 57191  97.5968 342.4926 0020284  71.9554 288.3883 15.09978041 71941
SITRO-AIS 6 (CHIRKIN)   
1 57192U 23091AC  24291.53271429  .00014759  00000+0  85510-3 0  9997
2 57192  97.5974 342.8710 0017717  65.9668 294.3414 15.12170866 71962
SITRO-AIS 8 (ANOKHIN)   
1 57193U 23091AD  24291.53197428  .00016581  00000+0  94430-3 0  9990
2 57193  97.5971 343.0151 0017363  66.7200 293.5856 15.12768010 71976
SITRO-AIS 7 (FARTUSHNIY)
1 57194U 23091AE  24291.54232952  .00015438  00000+0  89595-3 0  9990
2 57194  97.5973 342.8498 0017588  66.5049 293.8027 15.12100314 71967
AVION KALUGA 650        
1 57195U 23091AF  24291.57084487  .00011222  00000+0  68506-3 0  9998
2 57195  97.6006 343.1986 0013918  57.6793 302.5782 15.10396435 71978
HORS 2                  
1 57196U 23091AG  24291.54481424  .00015892  00000+0  88227-3 0  9997
2 57196  97.5993 344.0469 0013163  54.6583 305.5877 15.13746591 72036
A-SEANSAT-PG1           
1 57197U 23091AH  24291.52338814  .00017824  00000+0  96402-3 0  9991
2 57197  97.5969 344.1130 0012668  57.5096 302.7358 15.14657835 72043
YARILO 3                
1 57198U 23091AJ  24291.53580981  .00055975  00000+0  20477-2 0  9994
2 57198  97.5994 347.4560 0009029  50.3045 309.8989 15.27820858 72248
SITRO-AIS 10 (BURDAEV)  
1 57199U 23091AK  24291.60889853  .00019035  00000+0  10208-2 0  9991
2 57199  97.5986 344.3831 0012488  55.9550 304.2866 15.14948281 72062
2023-091AL              
1 57200U 23091AL  24291.54359032  .00021911  00000+0  11338-2 0  9999
2 57200  97.6003 344.7396 0012438  49.6598 310.5718 15.16182639 72079
SITRO-AIS 9 (SHCHUKIN)  
1 57201U 23091AM  24291.54325966  .00018360  00000+0  98602-3 0  9993
2 57201  97.5981 344.2858 0012425  56.3863 303.8552 15.14904917 72056
CSTP 1.1 (STC 1.1)      
1 57202U 23091AN  24291.54229285  .00010338  00000+0  63920-3 0  9993
2 57202  97.6031 343.0002 0012597  56.0903 304.1523 15.09967734 71954
UTMN 2 (RS27S)          
1 57203U 23091AP  24291.52433882  .00015500  00000+0  85831-3 0  9993
2 57203  97.5988 344.0589 0012959  51.8374 308.4023 15.13846794 72032
SITRO-AIS 12 (SMIRENNIY)
1 57204U 23091AQ  24291.49005010  .00018636  00000+0  99530-3 0  9992
2 57204  97.5991 344.4139 0012158  50.6206 309.6101 15.15102478 72052
ARCCUBE 1 (RS25S)       
1 57205U 23091AR  24291.52717784  .00033422  00000+0  14754-2 0  9999
2 57205  97.5918 345.7414 0010155  54.6177 305.6006 15.21632141 72162
2023-091AS              
1 57206U 23091AS  24291.50756015  .00022699  00000+0  11270-2 0  9992
2 57206  97.5953 344.9449 0011119  56.5948 303.6348 15.17641805 72102
SITRO-AIS 11 (SHEFFER)  
1 57208U 23091AU  24291.53333794  .00018281  00000+0  97293-3 0  9994
2 57208  97.5987 344.4960 0012039  51.1354 309.0950 15.15231811 72062
H2SAT (HEINRICH HERTZ)  
1 57213U 23093A   24291.33896044 -.00000001  00000+0  00000+0 0  9990
2 57213   0.0171 214.7240 0001333   9.0463 285.0613  1.00270670  4823
SYRACUSE 4B             
1 57214U 23093B   24291.39146594 -.00000055  00000+0  00000+0 0  9994
2 57214   0.0174 236.1288 0000312  28.8434 255.7655  1.00270492   862
KUZGTU 1 (RS47S)        
1 57217U 23091AV  24291.59832259  .00015472  00000+0  88895-3 0  9997
2 57217  97.5977 343.1206 0017311  61.5509 298.7464 15.12467406 71987
STARLINK-5525           
1 57218U 23094A   24291.38890716  .00000253  00000+0  33835-4 0  9996
2 57218  43.0026 272.7010 0001111 269.7193  90.3522 15.02534619 70655
STARLINK-5520           
1 57219U 23094B   24291.45204994  .00002891  00000+0  22894-3 0  9994
2 57219  43.0037 272.3147 0001182 265.0158  95.0549 15.02542258 70663
STARLINK-5880           
1 57220U 23094C   24291.43651078  .00002194  00000+0  17742-3 0  9995
2 57220  43.0036 272.1948 0001416 254.8503 105.2183 15.02541900 70662
STARLINK-5875           
1 57221U 23094D   24291.44983461  .00011876  00000+0  89246-3 0  9996
2 57221  43.0031 272.2979 0001384 266.4711  93.5973 15.02546336 70661
STARLINK-5870           
1 57222U 23094E   24291.44316994  .00003523  00000+0  27567-3 0  9996
2 57222  43.0035 272.2467 0001443 259.2314 100.8366 15.02541983 71294
STARLINK-5519           
1 57223U 23094F   24291.44650612  .00000116  00000+0  23651-4 0  9991
2 57223  43.0042 272.2731 0001070 274.4264  85.6456 15.02537810 70660
STARLINK-5983           
1 57224U 23094G   24291.24040723  .00003463  00000+0  27124-3 0  9992
2 57224  43.0037 273.3058 0001211 277.9696  82.1009 15.02543155 70815
STARLINK-6294           
1 57225U 23094H   24291.38225060  .00001374  00000+0  11675-3 0  9990
2 57225  43.0024 272.6465 0000943 278.0497  82.0238 15.02531305 70657
STARLINK-6350           
1 57226U 23094J   24291.42873898  .00001569  00000+0  13114-3 0  9990
2 57226  43.0044 272.1367 0001596 266.2682  93.7978 15.02545880 70660
STARLINK-5996           
1 57227U 23094K   24291.43317906  .00004261  00000+0  33028-3 0  9993
2 57227  43.0025 272.1699 0001190 256.9421 103.1288 15.02542386 70663
STARLINK-6230           
1 57228U 23094L   24291.42541671  .00000554  00000+0  56072-4 0  9997
2 57228  43.0034 272.1118 0000884 274.0358  86.0383 15.02536923 70664
STARLINK-6233           
1 57229U 23094M   24291.43207040  .00002210  00000+0  17856-3 0  9995
2 57229  43.0038 272.1621 0001555 262.4585  97.6081 15.02546644 70661
STARLINK-6250           
1 57230U 23094N   24290.95452033 -.00000347  00000+0 -10599-4 0  9996
2 57230  43.0003 274.5957 0000678 280.6141  79.4625 15.02536877 70599
STARLINK-5840           
1 57231U 23094P   24291.39655412  .00000633  00000+0  61923-4 0  9995
2 57231  43.0040 271.8938 0000846 275.7804  84.2941 15.02538154 70661
STARLINK-5872           
1 57232U 23094Q   24291.39544633  .00001128  00000+0  98565-4 0  9990
2 57232  43.0033 271.8822 0000850 284.4133  75.6615 15.02540481 71325
STARLINK-5866           
1 57233U 23094R   24291.40321363 -.00000676  00000+0 -34949-4 0  9991
2 57233  43.0044 271.9447 0001104 277.8432  82.2285 15.02541885 70665
STARLINK-6368           
1 57234U 23094S   24291.39322036  .00004289  00000+0  33228-3 0  9998
2 57234  43.0037 271.8690 0000952 278.2426  81.8308 15.02544042 70664
STARLINK-6360           
1 57235U 23094T   24291.33895483  .00001225  00000+0  10572-3 0  9998
2 57235  43.0037 272.3220 0001615 267.6038  92.4620 15.02541411 70659
STARLINK-6315           
1 57236U 23094U   24291.59968845  .00002446  00000+0  19605-3 0  9992
2 57236  43.0047 258.6975 0001255 259.3192 100.7509 15.02543496 70838
STARLINK-6365           
1 57237U 23094V   24291.39988356  .00000656  00000+0  63609-4 0  9995
2 57237  43.0037 271.9179 0001565 266.1546  93.9117 15.02537507 70660
